start=new Date('2023-04-28T00:00:00.000Z').valueOf();
sats=[{"LAUNCH_DATE":"2022-05-18","MEAN_ANOMALY":"250.1058","REV_AT_EPOCH":"5330","OBJECT_TYPE":"PAYLOAD","TIME_SYSTEM":"UTC","INCLINATION":"53.2148","CLASSIFICATION_TYPE":"U","SITE":"AFETR","RA_OF_ASC_NODE":"175.6884","SEMIMAJOR_AXIS":"6917.781","MEAN_MOTION_DDOT":"0.0000000000000","RCS_SIZE":"LARGE","PERIAPSIS":"538.572","DECAY_DATE":null,"GP_ID":"230837048","MEAN_ELEMENT_THEORY":"SGP4","BSTAR":"0.00146430000000","ELEMENT_SET_NO":"999","NORAD_CAT_ID":"52657","ECCENTRICITY":"0.00015520","EPHEMERIS_TYPE":"0","OBJECT_NAME":"STARLINK-4084","COUNTRY_CODE":"US","MEAN_MOTION_DOT":"0.00023114","FILE":"3894751","OBJECT_ID":"2022-053B","TLE_LINE2":"2 52657  53.2148 175.6884 0001552 110.0101 250.1058 15.08872595 53308","REF_FRAME":"TEME","TLE_LINE1":"1 52657U 22053B   23117.37683102  .00023114  00000-0  14643-2 0  9992","CENTER_NAME":"EARTH","MEAN_MOTION":"15.08872595","APOAPSIS":"540.719","EPOCH":"2023-04-27T09:02:38.200128","PERIOD":"95.435","ARG_OF_PERICENTER":"110.0101"},{"OBJECT_TYPE":"PAYLOAD","MEAN_ANOMALY":"250.6562","REV_AT_EPOCH":"5315","LAUNCH_DATE":"2022-05-18","SITE":"AFETR","CLASSIFICATION_TYPE":"U","TIME_SYSTEM":"UTC","INCLINATION":"53.2158","SEMIMAJOR_AXIS":"6917.804","RA_OF_ASC_NODE":"174.8142","GP_ID":"230838298","DECAY_DATE":null,"PERIAPSIS":"538.500","RCS_SIZE":"LARGE","MEAN_MOTION_DDOT":"0.0000000000000","EPHEMERIS_TYPE":"0","ECCENTRICITY":"0.00016910","NORAD_CAT_ID":"52658","BSTAR":"0.00075992000000","ELEMENT_SET_NO":"999","MEAN_ELEMENT_THEORY":"SGP4","FILE":"3894751","MEAN_MOTION_DOT":"0.00011835","COUNTRY_CODE":"US","OBJECT_NAME":"STARLINK-4082","TLE_LINE1":"1 52658U 22053C   23117.57186085  .00011835  00000-0  75992-3 0  9995","REF_FRAME":"TEME","TLE_LINE2":"2 52658  53.2158 174.8142 0001691 109.4613 250.6562 15.08864857 53152","OBJECT_ID":"2022-053C","PERIOD":"95.436","ARG_OF_PERICENTER":"109.4613","EPOCH":"2023-04-27T13:43:28.777440","APOAPSIS":"540.839","MEAN_MOTION":"15.08864857","CENTER_NAME":"EARTH"},{"OBJECT_NAME":"STARLINK-3960","MEAN_MOTION_DOT":"0.00017589","FILE":"3894751","COUNTRY_CODE":"US","MEAN_ELEMENT_THEORY":"SGP4","EPHEMERIS_TYPE":"0","BSTAR":"0.00111910000000","ELEMENT_SET_NO":"999","ECCENTRICITY":"0.00017970","NORAD_CAT_ID":"52659","MEAN_MOTION":"15.08884738","CENTER_NAME":"EARTH","PERIOD":"95.435","EPOCH":"2023-04-27T13:44:50.790912","ARG_OF_PERICENTER":"52.6555","APOAPSIS":"540.852","OBJECT_ID":"2022-053D","TLE_LINE1":"1 52659U 22053D   23117.57281008  .00017589  00000-0  11191-2 0  9999","TLE_LINE2":"2 52659  53.2146 174.8096 0001797  52.6555 307.4601 15.08884738 53143","REF_FRAME":"TEME","INCLINATION":"53.2146","TIME_SYSTEM":"UTC","CLASSIFICATION_TYPE":"U","SITE":"AFETR","LAUNCH_DATE":"2022-05-18","OBJECT_TYPE":"PAYLOAD","MEAN_ANOMALY":"307.4601","REV_AT_EPOCH":"5314","RCS_SIZE":"LARGE","PERIAPSIS":"538.366","MEAN_MOTION_DDOT":"0.0000000000000","DECAY_DATE":null,"GP_ID":"230838047","RA_OF_ASC_NODE":"174.8096","SEMIMAJOR_AXIS":"6917.744"},{"SITE":"AFETR","CLASSIFICATION_TYPE":"U","INCLINATION":"53.2146","TIME_SYSTEM":"UTC","MEAN_ANOMALY":"251.1157","REV_AT_EPOCH":"5304","OBJECT_TYPE":"PAYLOAD","LAUNCH_DATE":"2022-05-18","GP_ID":"230841883","DECAY_DATE":null,"MEAN_MOTION_DDOT":"0.0000000000000","PERIAPSIS":"538.829","RCS_SIZE":"LARGE","SEMIMAJOR_AXIS":"6917.781","RA_OF_ASC_NODE":"174.5519","COUNTRY_CODE":"US","FILE":"3894802","MEAN_MOTION_DOT":"0.00019015","OBJECT_NAME":"STARLINK-4081","ECCENTRICITY":"0.00011810","NORAD_CAT_ID":"52660","BSTAR":"0.00120850000000","ELEMENT_SET_NO":"999","EPHEMERIS_TYPE":"0","MEAN_ELEMENT_THEORY":"SGP4","APOAPSIS":"540.463","ARG_OF_PERICENTER":"108.9963","PERIOD":"95.435","EPOCH":"2023-04-27T15:08:16.810368","CENTER_NAME":"EARTH","MEAN_MOTION":"15.08872514","REF_FRAME":"TEME","TLE_LINE2":"2 52660  53.2146 174.5519 0001181 108.9963 251.1157 15.08872514 53046","TLE_LINE1":"1 52660U 22053E   23117.63075012  .00019015  00000-0  12085-2 0  9993","OBJECT_ID":"2022-053E"},{"OBJECT_ID":"2022-053F","REF_FRAME":"TEME","TLE_LINE2":"2 52661  53.2138 174.5688 0001520  46.4165 313.6953 15.08871912 52972","TLE_LINE1":"1 52661U 22053F   23117.62707029  .00022017  00000-0  13959-2 0  9990","CENTER_NAME":"EARTH","MEAN_MOTION":"15.08871912","APOAPSIS":"540.699","PERIOD":"95.436","EPOCH":"2023-04-27T15:02:58.873056","ARG_OF_PERICENTER":"46.4165","MEAN_ELEMENT_THEORY":"SGP4","NORAD_CAT_ID":"52661","ECCENTRICITY":"0.00015200","BSTAR":"0.00139590000000","ELEMENT_SET_NO":"999","EPHEMERIS_TYPE":"0","OBJECT_NAME":"STARLINK-4042","COUNTRY_CODE":"US","FILE":"3894802","MEAN_MOTION_DOT":"0.00022017","RA_OF_ASC_NODE":"174.5688","SEMIMAJOR_AXIS":"6917.783","MEAN_MOTION_DDOT":"0.0000000000000","PERIAPSIS":"538.596","RCS_SIZE":"LARGE","GP_ID":"230841895","DECAY_DATE":null,"LAUNCH_DATE":"2022-05-18","MEAN_ANOMALY":"313.6953","REV_AT_EPOCH":"5297","OBJECT_TYPE":"PAYLOAD","INCLINATION":"53.2138","TIME_SYSTEM":"UTC","SITE":"AFETR","CLASSIFICATION_TYPE":"U"},{"SEMIMAJOR_AXIS":"6917.787","RA_OF_ASC_NODE":"175.4907","DECAY_DATE":null,"GP_ID":"230837800","MEAN_MOTION_DDOT":"0.0000000000000","RCS_SIZE":"LARGE","PERIAPSIS":"538.910","REV_AT_EPOCH":"5294","MEAN_ANOMALY":"229.1397","OBJECT_TYPE":"PAYLOAD","LAUNCH_DATE":"2022-05-18","CLASSIFICATION_TYPE":"U","SITE":"AFETR","INCLINATION":"53.2143","TIME_SYSTEM":"UTC","TLE_LINE2":"2 52662  53.2143 175.4907 0001072 130.9688 229.1397 15.08870714 52943","REF_FRAME":"TEME","TLE_LINE1":"1 52662U 22053G   23117.42098977  .00019683  00000-0  12503-2 0  9993","OBJECT_ID":"2022-053G","APOAPSIS":"540.393","ARG_OF_PERICENTER":"130.9688","PERIOD":"95.436","EPOCH":"2023-04-27T10:06:13.516128","CENTER_NAME":"EARTH","MEAN_MOTION":"15.08870714","BSTAR":"0.00125030000000","ELEMENT_SET_NO":"999","NORAD_CAT_ID":"52662","ECCENTRICITY":"0.00010720","EPHEMERIS_TYPE":"0","MEAN_ELEMENT_THEORY":"SGP4","COUNTRY_CODE":"US","MEAN_MOTION_DOT":"0.00019683","FILE":"3894751","OBJECT_NAME":"STARLINK-4044"},{"CENTER_NAME":"EARTH","MEAN_MOTION":"15.08865460","APOAPSIS":"540.691","PERIOD":"95.436","ARG_OF_PERICENTER":"49.9641","EPOCH":"2023-04-27T11:36:18.802944","OBJECT_ID":"2022-053H","REF_FRAME":"TEME","TLE_LINE2":"2 52663  53.2137 175.2118 0001480  49.9641 310.1480 15.08865460 52957","TLE_LINE1":"1 52663U 22053H   23117.48355096  .00019972  00000-0  12685-2 0  9990","OBJECT_NAME":"STARLINK-4037","COUNTRY_CODE":"US","FILE":"3894751","MEAN_MOTION_DOT":"0.00019972","MEAN_ELEMENT_THEORY":"SGP4","NORAD_CAT_ID":"52663","ECCENTRICITY":"0.00014800","BSTAR":"0.00126850000000","ELEMENT_SET_NO":"999","EPHEMERIS_TYPE":"0","MEAN_MOTION_DDOT":"0.0000000000000","PERIAPSIS":"538.644","RCS_SIZE":"LARGE","GP_ID":"230838547","DECAY_DATE":null,"RA_OF_ASC_NODE":"175.2118","SEMIMAJOR_AXIS":"6917.803","INCLINATION":"53.2137","TIME_SYSTEM":"UTC","SITE":"AFETR","CLASSIFICATION_TYPE":"U","LAUNCH_DATE":"2022-05-18","MEAN_ANOMALY":"310.1480","REV_AT_EPOCH":"5295","OBJECT_TYPE":"PAYLOAD"},{"SITE":"AFETR","CLASSIFICATION_TYPE":"U","INCLINATION":"53.2138","TIME_SYSTEM":"UTC","MEAN_ANOMALY":"307.0987","REV_AT_EPOCH":"5294","OBJECT_TYPE":"PAYLOAD","LAUNCH_DATE":"2022-05-18","GP_ID":"230837298","DECAY_DATE":null,"MEAN_MOTION_DDOT":"0.0000000000000","PERIAPSIS":"538.563","RCS_SIZE":"LARGE","SEMIMAJOR_AXIS":"6917.805","RA_OF_ASC_NODE":"175.4730","COUNTRY_CODE":"US","FILE":"3894751","MEAN_MOTION_DOT":"0.00018473","OBJECT_NAME":"STARLINK-4070","NORAD_CAT_ID":"52664","ECCENTRICITY":"0.00016010","BSTAR":"0.00117490000000","ELEMENT_SET_NO":"999","EPHEMERIS_TYPE":"0","MEAN_ELEMENT_THEORY":"SGP4","APOAPSIS":"540.778","ARG_OF_PERICENTER":"53.0151","PERIOD":"95.436","EPOCH":"2023-04-27T10:11:31.266816","CENTER_NAME":"EARTH","MEAN_MOTION":"15.08864516","REF_FRAME":"TEME","TLE_LINE2":"2 52664  53.2138 175.4730 0001601  53.0151 307.0987 15.08864516 52945","TLE_LINE1":"1 52664U 22053J   23117.42466744  .00018473  00000-0  11749-2 0  9993","OBJECT_ID":"2022-053J"},{"FILE":"3894751","MEAN_MOTION_DOT":"0.00022166","COUNTRY_CODE":"US","OBJECT_NAME":"STARLINK-4064","EPHEMERIS_TYPE":"0","ECCENTRICITY":"0.00012740","NORAD_CAT_ID":"52665","BSTAR":"0.00140500000000","ELEMENT_SET_NO":"999","MEAN_ELEMENT_THEORY":"SGP4","PERIOD":"95.435","EPOCH":"2023-04-27T12:55:47.596512","ARG_OF_PERICENTER":"99.5445","APOAPSIS":"540.514","MEAN_MOTION":"15.08876898","CENTER_NAME":"EARTH","TLE_LINE1":"1 52665U 22053K   23117.53874533  .00022166  00000-0  14050-2 0  9997","REF_FRAME":"TEME","TLE_LINE2":"2 52665  53.2147 174.9611 0001274  99.5445 260.5691 15.08876898 52968","OBJECT_ID":"2022-053K","SITE":"AFETR","CLASSIFICATION_TYPE":"U","INCLINATION":"53.2147","TIME_SYSTEM":"UTC","OBJECT_TYPE":"PAYLOAD","REV_AT_EPOCH":"5296","MEAN_ANOMALY":"260.5691","LAUNCH_DATE":"2022-05-18","GP_ID":"230837049","DECAY_DATE":null,"PERIAPSIS":"538.751","RCS_SIZE":"LARGE","MEAN_MOTION_DDOT":"0.0000000000000","SEMIMAJOR_AXIS":"6917.768","RA_OF_ASC_NODE":"174.9611"},{"OBJECT_ID":"2022-053L","TLE_LINE1":"1 52666U 22053L   23117.48083100  .00021870  00000-0  13869-2 0  9992","REF_FRAME":"TEME","TLE_LINE2":"2 52666  53.2135 175.2342 0001074  97.9428 262.1686 15.08868082 52959","MEAN_MOTION":"15.08868082","CENTER_NAME":"EARTH","EPOCH":"2023-04-27T11:32:23.798400","PERIOD":"95.436","ARG_OF_PERICENTER":"97.9428","APOAPSIS":"540.403","MEAN_ELEMENT_THEORY":"SGP4","EPHEMERIS_TYPE":"0","NORAD_CAT_ID":"52666","ECCENTRICITY":"0.00010740","ELEMENT_SET_NO":"999","BSTAR":"0.00138690000000","OBJECT_NAME":"STARLINK-4079","FILE":"3894751","MEAN_MOTION_DOT":"0.00021870","COUNTRY_CODE":"US","RA_OF_ASC_NODE":"175.2342","SEMIMAJOR_AXIS":"6917.795","PERIAPSIS":"538.917","RCS_SIZE":"LARGE","MEAN_MOTION_DDOT":"0.0000000000000","GP_ID":"230838299","DECAY_DATE":null,"LAUNCH_DATE":"2022-05-18","OBJECT_TYPE":"PAYLOAD","REV_AT_EPOCH":"5295","MEAN_ANOMALY":"262.1686","INCLINATION":"53.2135","TIME_SYSTEM":"UTC","SITE":"AFETR","CLASSIFICATION_TYPE":"U"}];
